NORAD_CAT_ID,OBJECT_NAME,OBJECT_TYPE,EPOCH,MEAN_MOTION,ECCENTRICITY,INCLINATION,RA_OF_ASC_NODE,ARG_OF_PERICENTER,MEAN_ANOMALY,BSTAR,MEAN_MOTION_DOT,MEAN_MOTION_DDOT,TLE_LINE0,TLE_LINE1,TLE_LINE2,SEMIMAJOR_AXIS,PERIOD,APOGEE,PERIGEE,DECAYED
55632.0,STARLINK-5546,PAYLOAD,2024-03-17 14:02:17,14.9832922,0.0002672,70.0006,225.1443,257.6939,102.3921,-8.6115e-06,-1.96e-06,0.0,0 STARLINK-5546,1 55632U 23021E   24077.58492259 -.00000196  00000-0 -86115-5 0  9997,2 55632  70.0006 225.1443 0002672 257.6939 102.3921 14.98329220 60133,6950.195,96.107,573.917,570.203,0.0
55632.0,STARLINK-5546,PAYLOAD,2024-03-17 20:26:49,14.98330341,0.0002625,70.0011,224.4713,256.9542,103.1324,4.8374e-06,-3.5e-07,0.0,0 STARLINK-5546,1 55632U 23021E   24077.85196161 -.00000035  00000-0  48374-5 0  9996,2 55632  70.0011 224.4713 0002625 256.9542 103.1324 14.98330341 60177,6950.192,96.107,573.881,570.232,0.0
55632.0,STARLINK-5546,PAYLOAD,2024-03-18 12:28:10,14.98329284,0.0002712,70.001,222.7882,258.3132,101.7723,9.7785e-06,2.4e-07,0.0,0 STARLINK-5546,1 55632U 23021E   24078.51956177  .00000024  00000-0  97785-5 0  9998,2 55632  70.0010 222.7882 0002712 258.3132 101.7723 14.98329284 59979,6950.195,96.107,573.945,570.175,0.0
55632.0,STARLINK-5546,PAYLOAD,2024-03-18 18:52:42,14.98330959,0.0002624,70.001,222.1149,252.7103,107.3769,5.7667e-06,-2.4e-07,0.0,0 STARLINK-5546,1 55632U 23021E   24078.78660068 -.00000024  00000-0  57667-5 0  9994,2 55632  70.0010 222.1149 0002624 252.7103 107.3769 14.98330959 60310,6950.19,96.107,573.879,570.231,0.0
55632.0,STARLINK-5546,PAYLOAD,2024-03-19 12:30:10,14.98333094,0.000284,70.0013,220.2642,258.1593,101.9248,6.4746e-05,6.8e-06,0.0,0 STARLINK-5546,1 55632U 23021E   24079.52095716  .00000680  00000-0  64746-4 0  9991,2 55632  70.0013 220.2642 0002840 258.1593 101.9248 14.98333094 60420,6950.183,96.107,574.022,570.074,0.0
55632.0,STARLINK-5546,PAYLOAD,2024-03-19 18:54:42,14.98335716,0.0002805,70.0013,219.591,260.2447,99.8395,8.956e-05,9.76e-06,0.0,0 STARLINK-5546,1 55632U 23021E   24079.78799414  .00000976  00000-0  89560-4 0  9994,2 55632  70.0013 219.5910 0002805 260.2447  99.8395 14.98335716 60164,6950.175,96.107,573.99,570.091,0.0
55632.0,STARLINK-5546,PAYLOAD,2024-03-20 10:56:04,14.9832712,0.000267,70.002,217.9111,263.0969,96.9887,-3.4902e-05,-5.09e-06,0.0,0 STARLINK-5546,1 55632U 23021E   24080.45560328 -.00000509  00000-0 -34902-4 0  9994,2 55632  70.0020 217.9111 0002670 263.0969  96.9887 14.98327120 60262,6950.202,96.107,573.923,570.211,0.0
55632.0,STARLINK-5546,PAYLOAD,2024-03-20 14:08:20,14.98326132,0.0002692,70.0019,217.5739,261.8718,98.2136,-4.0189e-05,-5.72e-06,0.0,0 STARLINK-5546,1 55632U 23021E   24080.58912424 -.00000572  00000-0 -40189-4 0  9990,2 55632  70.0019 217.5739 0002692 261.8718  98.2136 14.98326132 60583,6950.205,96.107,573.941,570.199,0.0
55632.0,STARLINK-5546,PAYLOAD,2024-03-20 18:56:44,14.9832376,0.0002706,70.0016,217.0681,259.8599,100.2255,-3.6685e-05,-5.31e-06,0.0,0 STARLINK-5546,1 55632U 23021E   24080.78940606 -.00000531  00000-0 -36685-4 0  9996,2 55632  70.0016 217.0681 0002706 259.8599 100.2255 14.98323760 60615,6950.212,96.107,573.958,570.196,0.0
55632.0,STARLINK-5546,PAYLOAD,2024-03-21 12:34:11,14.98346377,0.0003078,70.0003,215.2085,278.849,81.232,0.00012881,1.445e-05,0.0,0 STARLINK-5546,1 55632U 23021E   24081.52374388  .00001445  00000-0  12881-3 0  9991,2 55632  70.0003 215.2085 0003078 278.8490  81.2320 14.98346377 60422,6950.142,96.106,574.147,569.868,0.0
55632.0,STARLINK-5546,PAYLOAD,2024-03-21 14:10:19,14.98350675,0.0002351,70.0026,215.0463,255.4963,104.5936,0.00016762,1.909e-05,0.0,0 STARLINK-5546,1 55632U 23021E   24081.59049961  .00001909  00000-0  16762-3 0  9991,2 55632  70.0026 215.0463 0002351 255.4963 104.5936 14.98350675 60736,6950.129,96.106,573.628,570.36,0.0
55632.0,STARLINK-5546,PAYLOAD,2024-03-21 18:58:41,14.98365615,0.0002819,70.0014,214.5429,267.3985,92.6851,0.00028041,3.257e-05,0.0,0 STARLINK-5546,1 55632U 23021E   24081.79076270  .00003257  00000-0  28041-3 0  9997,2 55632  70.0014 214.5429 0002819 267.3985  92.6851 14.98365615 60467,6950.083,96.105,573.907,569.989,0.0
55632.0,STARLINK-5546,PAYLOAD,2024-03-22 12:36:13,14.98317389,0.0003521,70.0005,212.6902,276.2127,83.8631,-7.4436e-05,-9.81e-06,0.0,0 STARLINK-5546,1 55632U 23021E   24082.52515995 -.00000981  00000-0 -74436-4 0  9994,2 55632  70.0005 212.6902 0003521 276.2127  83.8631 14.98317389 60575,6950.232,96.108,574.544,569.65,0.0
55632.0,STARLINK-5546,PAYLOAD,2024-03-22 14:12:21,14.98316599,0.0003212,70.001,212.5221,274.1098,85.9694,-6.7616e-05,-8.99e-06,0.0,0 STARLINK-5546,1 55632U 23021E   24082.59192066 -.00000899  00000-0 -67616-4 0  9991,2 55632  70.0010 212.5221 0003212 274.1098  85.9694 14.98316599 60883,6950.234,96.108,574.332,569.867,0.0
55632.0,STARLINK-5546,PAYLOAD,2024-03-22 19:00:45,14.98321352,0.0002991,70.0011,212.0169,267.3484,92.7332,-2.1407e-05,-3.48e-06,0.0,0 STARLINK-5546,1 55632U 23021E   24082.79219696 -.00000348  00000-0 -21407-4 0  9999,2 55632  70.0011 212.0169 0002991 267.3484  92.7332 14.98321352 60918,6950.22,96.108,574.163,570.006,0.0
55632.0,STARLINK-5546,PAYLOAD,2024-03-23 17:26:39,14.98329883,0.0002394,70.0027,209.6611,257.3126,102.7765,-0.00026338,-3.234e-05,0.0,0 STARLINK-5546,1 55632U 23021E   24083.72684120 -.00003234  00000-0 -26338-3 0  9995,2 55632  70.0027 209.6611 0002394 257.3126 102.7765 14.98329883 61053,6950.193,96.107,573.722,570.394,0.0
55632.0,STARLINK-5546,PAYLOAD,2024-03-24 12:40:14,14.98326383,0.0002673,70.0022,207.6424,255.8442,104.242,0.000267,3.094e-05,0.0,0 STARLINK-5546,1 55632U 23021E   24084.52794930  .00003094  00000-0  26700-3 0  9990,2 55632  70.0022 207.6424 0002673 255.8442 104.2420 14.98326383 60878,6950.204,96.107,573.927,570.211,0.0
55632.0,STARLINK-5546,PAYLOAD,2024-03-24 14:16:22,14.98328803,0.0002719,70.002,207.4731,255.1808,104.905,0.00025458,2.946e-05,0.0,0 STARLINK-5546,1 55632U 23021E   24084.59470827  .00002946  00000-0  25458-3 0  9997,2 55632  70.0020 207.4731 0002719 255.1808 104.9050 14.98328803 61185,6950.197,96.107,573.951,570.172,0.0
55632.0,STARLINK-5546,PAYLOAD,2024-03-24 17:28:38,14.98335787,0.0002643,70.002,207.1365,257.2416,102.8448,0.00032297,3.763e-05,0.0,0 STARLINK-5546,1 55632U 23021E   24084.72822262  .00003763  00000-0  32297-3 0  9993,2 55632  70.0020 207.1365 0002643 257.2416 102.8448 14.98335787 60905,6950.175,96.107,573.877,570.203,0.0
55632.0,STARLINK-5546,PAYLOAD,2024-03-25 01:29:19,14.98327619,0.0002837,70.0034,206.2927,268.2956,91.7878,0.00013934,1.57e-05,0.0,0 STARLINK-5546,1 55632U 23021E   24085.06203412  .00001570  00000-0  13934-3 0  9992,2 55632  70.0034 206.2927 0002837 268.2956  91.7878 14.98327619 60953,6950.2,96.107,574.037,570.093,0.0
55632.0,STARLINK-5546,PAYLOAD,2024-03-25 12:42:16,14.98319925,0.000288,70.0014,205.1158,262.5389,97.5443,8.2049e-05,8.86e-06,0.0,0 STARLINK-5546,1 55632U 23021E   24085.52936268  .00000886  00000-0  82049-4 0  9998,2 55632  70.0014 205.1158 0002880 262.5389  97.5443 14.98319925 61022,6950.224,96.108,574.091,570.087,0.0
55632.0,STARLINK-5546,PAYLOAD,2024-03-25 17:30:40,14.9832573,0.0002598,70.0026,204.613,247.8872,112.2011,0.00013053,1.465e-05,0.0,0 STARLINK-5546,1 55632U 23021E   24085.72963819  .00001465  00000-0  13053-3 0  9994,2 55632  70.0026 204.6130 0002598 247.8872 112.2011 14.98325730 61058,6950.206,96.107,573.877,570.265,0.0
55632.0,STARLINK-5546,PAYLOAD,2024-03-26 12:44:18,14.98319622,0.0002864,70.0014,202.5923,262.4498,97.6336,-0.00021759,-2.687e-05,0.0,0 STARLINK-5546,1 55632U 23021E   24086.53077425 -.00002687  00000-0 -21759-3 0  9994,2 55632  70.0014 202.5923 0002864 262.4498  97.6336 14.98319622 61177,6950.225,96.108,574.081,570.099,0.0
55632.0,STARLINK-5546,PAYLOAD,2024-03-26 14:20:26,14.98320786,0.0002999,70.0009,202.4233,265.8159,94.2657,-0.00020574,-2.546e-05,0.0,0 STARLINK-5546,1 55632U 23021E   24086.59753340 -.00002546  00000-0 -20574-3 0  9995,2 55632  70.0009 202.4233 0002999 265.8159  94.2657 14.98320786 61480,6950.221,96.108,574.171,570.002,0.0
55632.0,STARLINK-5546,PAYLOAD,2024-03-26 17:32:42,14.98321948,0.0002903,70.0014,202.0875,264.26,95.8228,-0.0001746,-2.175e-05,0.0,0 STARLINK-5546,1 55632U 23021E   24086.73105271 -.00002175  00000-0 -17460-3 0  9993,2 55632  70.0014 202.0875 0002903 264.2600  95.8228 14.98321948 61508,6950.218,96.108,574.1,570.065,0.0
55632.0,STARLINK-5546,PAYLOAD,2024-03-27 01:33:22,14.98332199,0.0003042,70.0011,201.2453,266.1756,93.9055,-0.00018193,-2.263e-05,0.0,0 STARLINK-5546,1 55632U 23021E   24087.06484677 -.00002263  00000-0 -18193-3 0  9992,2 55632  70.0011 201.2453 0003042 266.1756  93.9055 14.98332199 61255,6950.186,96.107,574.165,569.937,0.0
55632.0,STARLINK-5546,PAYLOAD,2024-03-27 14:22:26,14.98334539,0.0002944,70.0011,199.8985,263.8909,96.1914,0.00016915,1.926e-05,0.0,0 STARLINK-5546,1 55632U 23021E   24087.59891836  .00001926  00000-0  16915-3 0  9992,2 55632  70.0011 199.8985 0002944 263.8909  96.1914 14.98334539 61632,6950.179,96.107,574.09,569.998,0.0
55632.0,STARLINK-5546,PAYLOAD,2024-03-27 17:34:42,14.98338954,0.0002999,70.0011,199.5617,262.6356,97.4463,0.00021537,2.478e-05,0.0,0 STARLINK-5546,1 55632U 23021E   24087.73243407  .00002478  00000-0  21537-3 0  9992,2 55632  70.0011 199.5617 0002999 262.6356  97.4463 14.98338954 61351,6950.165,96.106,574.115,569.946,0.0
55632.0,STARLINK-5546,PAYLOAD,2024-03-28 12:48:21,14.98308747,0.0003534,69.9996,197.5407,279.8444,80.2316,2.9229e-05,2.56e-06,0.0,0 STARLINK-5546,1 55632U 23021E   24088.53358076  .00000256  00000-0  29229-4 0  9999,2 55632  69.9996 197.5407 0003534 279.8444  80.2316 14.98308747 61476,6950.259,96.108,574.58,569.667,0.0
55632.0,STARLINK-5546,PAYLOAD,2024-03-28 17:36:45,14.9830641,0.0002683,70.0012,197.0363,266.7027,93.3825,4.0285e-05,3.87e-06,0.0,0 STARLINK-5546,1 55632U 23021E   24088.73386407  .00000387  00000-0  40285-4 0  9990,2 55632  70.0012 197.0363 0002683 266.7027  93.3825 14.98306410 61802,6950.266,96.109,573.996,570.266,0.0
